[{"OBJECT_NAME":"STARLINK-32190","OBJECT_ID":"2024-133T","EPOCH":"2026-03-09T21:31:30.584928","MEAN_MOTION":15.30199688,"ECCENTRICITY":7.685e-5,"INCLINATION":53.1597,"RA_OF_ASC_NODE":295.9809,"ARG_OF_PERICENTER":117.9999,"MEAN_ANOMALY":242.108,"EPHEMERIS_TYPE":0,"CLASSIFICATION_TYPE":"U","NORAD_CAT_ID":60318,"ELEMENT_SET_NO":999,"REV_AT_EPOCH":9167,"BSTAR":-5.5474253e-5,"MEAN_MOTION_DOT":-2.001e-5,"MEAN_MOTION_DDOT":0},{"OBJECT_NAME":"TOMORROW-S4","OBJECT_ID":"2024-247K","EPOCH":"2026-03-09T12:47:35.836224","MEAN_MOTION":15.27717249,"ECCENTRICITY":0.00044343,"INCLINATION":44.9818,"RA_OF_ASC_NODE":117.9996,"ARG_OF_PERICENTER":210.4078,"MEAN_ANOMALY":149.6548,"EPHEMERIS_TYPE":0,"CLASSIFICATION_TYPE":"U","NORAD_CAT_ID":62386,"ELEMENT_SET_NO":999,"REV_AT_EPOCH":6770,"BSTAR":0.00046927249,"MEAN_MOTION_DOT":0.00012677,"MEAN_MOTION_DDOT":0}]
